BEIDOU-2 IGSO-1         
1 36828U 10036A   25319.51552984 -.00000044  00000+0  00000+0 0  9993
2 36828  54.2794 164.8948 0050831 215.9297 326.8706  1.00284412 55950
BEIDOU-2 G4             
1 37210U 10057A   25322.10461373 -.00000094  00000+0  00000+0 0  9997
2 37210   3.1219  70.0115 0010293 184.4344   0.6653  1.00273088 55175
BEIDOU-2 IGSO-2         
1 37256U 10068A   25319.82427707 -.00000231  00000+0  00000+0 0  9990
2 37256  47.9377 274.4809 0049892 216.8009 326.6599  1.00295421 54658
BEIDOU-2 IGSO-3         
1 37384U 11013A   25321.64528238 -.00000206  00000+0  00000+0 0  9999
2 37384  62.1103  42.1570 0036156 185.3343 169.5673  1.00277133 53534
BEIDOU-2 IGSO-4         
1 37763U 11038A   25322.03954514  .00000055  00000+0  00000+0 0  9992
2 37763  54.5779 167.5676 0148080 230.2846 127.1592  1.00287311 52523
BEIDOU-2 IGSO-5         
1 37948U 11073A   25321.84614256 -.00000207  00000+0  00000+0 0  9990
2 37948  48.0674 274.1627 0108206 222.1779 317.7402  1.00252731 51010
BEIDOU-2 G5             
1 38091U 12008A   25322.17476372  .00000075  00000+0  00000+0 0  9993
2 38091   3.0464  70.7879 0011407 224.4835 243.8806  1.00268986 50252
BEIDOU-2 M3             
1 38250U 12018A   25321.62714314 -.00000080  00000+0  00000+0 0  9998
2 38250  55.9413 312.0016 0024708 272.1639  87.5529  1.86229956 92006
BEIDOU-2 M4             
1 38251U 12018B   25322.09611990 -.00000080  00000+0  00000+0 0  9997
2 38251  55.8427 311.2169 0015824 274.3678  85.4490  1.86229669 92013
BEIDOU-2 M6             
1 38775U 12050B   25321.80714876 -.00000065  00000+0  00000+0 0  9992
2 38775  56.3576  69.8947 0010581 349.1232  10.8356  1.86230929 89376
BEIDOU-2 G6             
1 38953U 12059A   25321.96596473 -.00000159  00000+0  00000+0 0  9991
2 38953   3.8847  75.7459 0006936 296.2228 117.0432  1.00274741 47793
BEIDOU-3S IGSO-1S       
1 40549U 15019A   25297.52891953 -.00000131  00000+0  00000+0 0  9999
2 40549  49.6453 298.3029 0040504 197.6198 177.4401  1.00251575 38711
BEIDOU-3S M2S           
1 40748U 15037A   25321.76423988 -.00000082  00000+0  00000+0 0  9998
2 40748  55.0607 309.3210 0012750 264.6664  95.1837  1.86229320 70187
