[
    {
        "OBJECT_NAME": "BEIDOU-2 IGSO-1 (C06)",
        "OBJECT_ID": "2010-036A",
        "EPOCH": "2025-11-15T12:22:21.778176",
        "MEAN_MOTION": 1.00284412,
        "ECCENTRICITY": 0.00508314,
        "INCLINATION": 54.2794,
        "RA_OF_ASC_NODE": 164.8948,
        "ARG_OF_PERICENTER": 215.9297,
        "MEAN_ANOMALY": 326.8706,
        "EPHEMERIS_TYPE": 0,
        "CLASSIFICATION_TYPE": "U",
        "NORAD_CAT_ID": 36828,
        "ELEMENT_SET_NO": 999,
        "REV_AT_EPOCH": 5595,
        "BSTAR": 0,
        "MEAN_MOTION_DOT": -4.4e-7,
        "MEAN_MOTION_DDOT": 0
    },
    {
        "OBJECT_NAME": "BEIDOU-2 G4 (C04)",
        "OBJECT_ID": "2010-057A",
        "EPOCH": "2025-11-18T02:30:38.626272",
        "MEAN_MOTION": 1.00273088,
        "ECCENTRICITY": 0.0010293,
        "INCLINATION": 3.1219,
        "RA_OF_ASC_NODE": 70.0115,
        "ARG_OF_PERICENTER": 184.4344,
        "MEAN_ANOMALY": 0.6653,
        "EPHEMERIS_TYPE": 0,
        "CLASSIFICATION_TYPE": "U",
        "NORAD_CAT_ID": 37210,
        "ELEMENT_SET_NO": 999,
        "REV_AT_EPOCH": 5517,
        "BSTAR": 0,
        "MEAN_MOTION_DOT": -9.4e-7,
        "MEAN_MOTION_DDOT": 0
    },
    {
        "OBJECT_NAME": "BEIDOU-2 IGSO-2 (C07)",
        "OBJECT_ID": "2010-068A",
        "EPOCH": "2025-11-15T19:46:57.538848",
        "MEAN_MOTION": 1.00295421,
        "ECCENTRICITY": 0.00498922,
        "INCLINATION": 47.9377,
        "RA_OF_ASC_NODE": 274.4809,
        "ARG_OF_PERICENTER": 216.8009,
        "MEAN_ANOMALY": 326.6599,
        "EPHEMERIS_TYPE": 0,
        "CLASSIFICATION_TYPE": "U",
        "NORAD_CAT_ID": 37256,
        "ELEMENT_SET_NO": 999,
        "REV_AT_EPOCH": 5465,
        "BSTAR": 0,
        "MEAN_MOTION_DOT": -2.31e-6,
        "MEAN_MOTION_DDOT": 0
    },
    {
        "OBJECT_NAME": "BEIDOU-2 IGSO-3 (C08)",
        "OBJECT_ID": "2011-013A",
        "EPOCH": "2025-11-17T15:29:12.397632",
        "MEAN_MOTION": 1.00277133,
        "ECCENTRICITY": 0.00361563,
        "INCLINATION": 62.1103,
        "RA_OF_ASC_NODE": 42.157,
        "ARG_OF_PERICENTER": 185.3343,
        "MEAN_ANOMALY": 169.5673,
        "EPHEMERIS_TYPE": 0,
        "CLASSIFICATION_TYPE": "U",
        "NORAD_CAT_ID": 37384,
        "ELEMENT_SET_NO": 999,
        "REV_AT_EPOCH": 5353,
        "BSTAR": 0,
        "MEAN_MOTION_DOT": -2.06e-6,
        "MEAN_MOTION_DDOT": 0
    },
    {
        "OBJECT_NAME": "BEIDOU-2 IGSO-4 (C09)",
        "OBJECT_ID": "2011-038A",
        "EPOCH": "2025-11-18T00:56:56.700096",
        "MEAN_MOTION": 1.00287311,
        "ECCENTRICITY": 0.014808,
        "INCLINATION": 54.5779,
        "RA_OF_ASC_NODE": 167.5676,
        "ARG_OF_PERICENTER": 230.2846,
        "MEAN_ANOMALY": 127.1592,
        "EPHEMERIS_TYPE": 0,
        "CLASSIFICATION_TYPE": "U",
        "NORAD_CAT_ID": 37763,
        "ELEMENT_SET_NO": 999,
        "REV_AT_EPOCH": 5252,
        "BSTAR": 0,
        "MEAN_MOTION_DOT": 5.5e-7,
        "MEAN_MOTION_DDOT": 0
    },
    {
        "OBJECT_NAME": "BEIDOU-2 IGSO-5 (C10)",
        "OBJECT_ID": "2011-073A",
        "EPOCH": "2025-11-17T20:18:26.717184",
        "MEAN_MOTION": 1.00252731,
        "ECCENTRICITY": 0.0108206,
        "INCLINATION": 48.0674,
        "RA_OF_ASC_NODE": 274.1627,
        "ARG_OF_PERICENTER": 222.1779,
        "MEAN_ANOMALY": 317.7402,
        "EPHEMERIS_TYPE": 0,
        "CLASSIFICATION_TYPE": "U",
        "NORAD_CAT_ID": 37948,
        "ELEMENT_SET_NO": 999,
        "REV_AT_EPOCH": 5101,
        "BSTAR": 0,
        "MEAN_MOTION_DOT": -2.07e-6,
        "MEAN_MOTION_DDOT": 0
    },
    {
        "OBJECT_NAME": "BEIDOU-2 G5 (C05)",
        "OBJECT_ID": "2012-008A",
        "EPOCH": "2025-11-18T04:11:39.585408",
        "MEAN_MOTION": 1.00268986,
        "ECCENTRICITY": 0.0011407,
        "INCLINATION": 3.0464,
        "RA_OF_ASC_NODE": 70.7879,
        "ARG_OF_PERICENTER": 224.4835,
        "MEAN_ANOMALY": 243.8806,
        "EPHEMERIS_TYPE": 0,
        "CLASSIFICATION_TYPE": "U",
        "NORAD_CAT_ID": 38091,
        "ELEMENT_SET_NO": 999,
        "REV_AT_EPOCH": 5025,
        "BSTAR": 0,
        "MEAN_MOTION_DOT": 7.5e-7,
        "MEAN_MOTION_DDOT": 0
    },
    {
        "OBJECT_NAME": "BEIDOU-2 M3 (C11)",
        "OBJECT_ID": "2012-018A",
        "EPOCH": "2025-11-17T15:03:05.167296",
        "MEAN_MOTION": 1.86229956,
        "ECCENTRICITY": 0.0024708,
        "INCLINATION": 55.9413,
        "RA_OF_ASC_NODE": 312.0016,
        "ARG_OF_PERICENTER": 272.1639,
        "MEAN_ANOMALY": 87.5529,
        "EPHEMERIS_TYPE": 0,
        "CLASSIFICATION_TYPE": "U",
        "NORAD_CAT_ID": 38250,
        "ELEMENT_SET_NO": 999,
        "REV_AT_EPOCH": 9200,
        "BSTAR": 0,
        "MEAN_MOTION_DOT": -8.0e-7,
        "MEAN_MOTION_DDOT": 0
    },
    {
        "OBJECT_NAME": "BEIDOU-2 M4 (C12)",
        "OBJECT_ID": "2012-018B",
        "EPOCH": "2025-11-18T02:18:24.759360",
        "MEAN_MOTION": 1.86229669,
        "ECCENTRICITY": 0.0015824,
        "INCLINATION": 55.8427,
        "RA_OF_ASC_NODE": 311.2169,
        "ARG_OF_PERICENTER": 274.3678,
        "MEAN_ANOMALY": 85.449,
        "EPHEMERIS_TYPE": 0,
        "CLASSIFICATION_TYPE": "U",
        "NORAD_CAT_ID": 38251,
        "ELEMENT_SET_NO": 999,
        "REV_AT_EPOCH": 9201,
        "BSTAR": 0,
        "MEAN_MOTION_DOT": -8.0e-7,
        "MEAN_MOTION_DDOT": 0
    },
    {
        "OBJECT_NAME": "BEIDOU-2 M6 (C14)",
        "OBJECT_ID": "2012-050B",
        "EPOCH": "2025-11-17T19:22:17.652864",
        "MEAN_MOTION": 1.86230929,
        "ECCENTRICITY": 0.0010581,
        "INCLINATION": 56.3576,
        "RA_OF_ASC_NODE": 69.8947,
        "ARG_OF_PERICENTER": 349.1232,
        "MEAN_ANOMALY": 10.8356,
        "EPHEMERIS_TYPE": 0,
        "CLASSIFICATION_TYPE": "U",
        "NORAD_CAT_ID": 38775,
        "ELEMENT_SET_NO": 999,
        "REV_AT_EPOCH": 8937,
        "BSTAR": 0,
        "MEAN_MOTION_DOT": -6.5e-7,
        "MEAN_MOTION_DDOT": 0
    },
    {
        "OBJECT_NAME": "BEIDOU-2 G6 (C02)",
        "OBJECT_ID": "2012-059A",
        "EPOCH": "2025-11-17T23:10:59.352672",
        "MEAN_MOTION": 1.00274741,
        "ECCENTRICITY": 0.0006936,
        "INCLINATION": 3.8847,
        "RA_OF_ASC_NODE": 75.7459,
        "ARG_OF_PERICENTER": 296.2228,
        "MEAN_ANOMALY": 117.0432,
        "EPHEMERIS_TYPE": 0,
        "CLASSIFICATION_TYPE": "U",
        "NORAD_CAT_ID": 38953,
        "ELEMENT_SET_NO": 999,
        "REV_AT_EPOCH": 4779,
        "BSTAR": 0,
        "MEAN_MOTION_DOT": -1.59e-6,
        "MEAN_MOTION_DDOT": 0
    },
    {
        "OBJECT_NAME": "BEIDOU-3S IGSO-1S (C31)",
        "OBJECT_ID": "2015-019A",
        "EPOCH": "2025-10-24T12:41:38.647392",
        "MEAN_MOTION": 1.00251575,
        "ECCENTRICITY": 0.00405046,
        "INCLINATION": 49.6453,
        "RA_OF_ASC_NODE": 298.3029,
        "ARG_OF_PERICENTER": 197.6198,
        "MEAN_ANOMALY": 177.4401,
        "EPHEMERIS_TYPE": 0,
        "CLASSIFICATION_TYPE": "U",
        "NORAD_CAT_ID": 40549,
        "ELEMENT_SET_NO": 999,
        "REV_AT_EPOCH": 3871,
        "BSTAR": 0,
        "MEAN_MOTION_DOT": -1.31e-6,
        "MEAN_MOTION_DDOT": 0
    },
    {
        "OBJECT_NAME": "BEIDOU-3S M2S (C58)",
        "OBJECT_ID": "2015-037A",
        "EPOCH": "2025-11-17T18:20:30.325632",
        "MEAN_MOTION": 1.8622932,
        "ECCENTRICITY": 0.001275,
        "INCLINATION": 55.0607,
        "RA_OF_ASC_NODE": 309.321,
        "ARG_OF_PERICENTER": 264.6664,
        "MEAN_ANOMALY": 95.1837,
        "EPHEMERIS_TYPE": 0,
        "CLASSIFICATION_TYPE": "U",
        "NORAD_CAT_ID": 40748,
        "ELEMENT_SET_NO": 999,
        "REV_AT_EPOCH": 7018,
        "BSTAR": 0,
        "MEAN_MOTION_DOT": -8.2e-7,
        "MEAN_MOTION_DDOT": 0
    }
]